ONEWEB-0647             
1 56079U 23043AK  23331.35805958 -.00000080  00000+0 -24598-3 0  9994
2 56079  87.9004  84.9352 0001349  90.6512 269.4773 13.15550963 33774
ONEWEB-0651             
1 56080U 23043AL  23330.82090083 -.00000051  00000+0 -16874-3 0  9998
2 56080  87.9000  85.0136 0001680  83.6374 276.4948 13.15547268 34902
ONEWEB-0718             
1 56081U 23043AM  23331.34853960 -.00000355  00000+0 -97634-3 0  9998
2 56081  87.8950  84.9003 0001880 111.0104 249.1227 13.15549661 34698
GSLV R/B                
1 56082U 23043AN  23330.72482729  .00045361  00000+0  73647-3 0  9993
2 56082  87.4137  55.1427 0020406 144.6498 215.6122 15.52309163 37885
ONEWEB-0561             
1 56710U 23068A   23330.87084264  .00000077  00000+0  12871-3 0  9993
2 56710  88.2915  95.7981 0000943  89.3050 270.8199 13.34315036 26849
ONEWEB-0668             
1 56711U 23068B   23331.58334491 -.00714607  00000+0 -13374+0 0  9991
2 56711  86.7963  62.2279 0012719 273.8207 289.3593 14.67785791 29070
ONEWEB-0676             
1 56712U 23068C   23331.25001157 -.00699720  00000+0 -13522+0 0  9999
2 56712  86.8082  62.2986 0012292 275.3907 182.4535 14.66312425 29011
ONEWEB-0677             
1 56713U 23068D   23331.37421930  .00000069  00000+0  11109-3 0  9991
2 56713  88.3249  93.7515 0001918  81.6141 278.5218 13.34764368 27094
